[{"OBJECT_NAME":"STARLINK-32009","OBJECT_ID":"2024-117P","EPOCH":"2026-03-09T07:21:36.468576","MEAN_MOTION":15.30189358,"ECCENTRICITY":0.00013353,"INCLINATION":53.1612,"RA_OF_ASC_NODE":39.1754,"ARG_OF_PERICENTER":85.846,"MEAN_ANOMALY":274.2694,"EPHEMERIS_TYPE":0,"CLASSIFICATION_TYPE":"U","NORAD_CAT_ID":60104,"ELEMENT_SET_NO":999,"REV_AT_EPOCH":9682,"BSTAR":-3.0997788e-5,"MEAN_MOTION_DOT":-1.277e-5,"MEAN_MOTION_DDOT":0},{"OBJECT_NAME":"OBJECT H","OBJECT_ID":"2024-205H","EPOCH":"2026-03-09T23:10:36.271776","MEAN_MOTION":15.29110994,"ECCENTRICITY":0.00105089,"INCLINATION":97.4168,"RA_OF_ASC_NODE":147.1265,"ARG_OF_PERICENTER":38.7838,"MEAN_ANOMALY":321.4154,"EPHEMERIS_TYPE":0,"CLASSIFICATION_TYPE":"U","NORAD_CAT_ID":61901,"ELEMENT_SET_NO":999,"REV_AT_EPOCH":7354,"BSTAR":0.00059497566,"MEAN_MOTION_DOT":0.00016783,"MEAN_MOTION_DDOT":0}]
